CCSDS_OMM_VERS = 2.0
CREATION_DATE  = 
ORIGINATOR     = 

OBJECT_NAME    = STARLINK-36494
OBJECT_ID      = 2026-002AC
CENTER_NAME    = EARTH
REF_FRAME      = TEME
TIME_SYSTEM    = UTC
MEAN_ELEMENT_THEORY = SGP/SGP4

EPOCH          = 2026-01-09T22:00:01.999584
MEAN_MOTION    = 16.03351272
ECCENTRICITY   = .00018922
INCLINATION    = 42.9996
RA_OF_ASC_NODE = 307.5316
ARG_OF_PERICENTER = 258.3321
MEAN_ANOMALY   = 66.1424

EPHEMERIS_TYPE = 0
CLASSIFICATION_TYPE = U
NORAD_CAT_ID   = 67331
ELEMENT_SET_NO = 999
REV_AT_EPOCH   = 212
BSTAR          = -.19798514E-2
MEAN_MOTION_DOT = -.1281822E-1
MEAN_MOTION_DDOT = .53546339E-3

CCSDS_OMM_VERS = 2.0
CREATION_DATE  = 
ORIGINATOR     = 

OBJECT_NAME    = STARLINK-36492
OBJECT_ID      = 2026-002AD
CENTER_NAME    = EARTH
REF_FRAME      = TEME
TIME_SYSTEM    = UTC
MEAN_ELEMENT_THEORY = SGP/SGP4

EPOCH          = 2026-01-09T22:00:01.999584
MEAN_MOTION    = 16.03617811
ECCENTRICITY   = .00018929
INCLINATION    = 42.9995
RA_OF_ASC_NODE = 307.5217
ARG_OF_PERICENTER = 257.8283
MEAN_ANOMALY   = 70.4495

EPHEMERIS_TYPE = 0
CLASSIFICATION_TYPE = U
NORAD_CAT_ID   = 67332
ELEMENT_SET_NO = 999
REV_AT_EPOCH   = 212
BSTAR          = -.19653667E-2
MEAN_MOTION_DOT = -.1292856E-1
MEAN_MOTION_DDOT = .54557657E-3

CCSDS_OMM_VERS = 2.0
CREATION_DATE  = 
ORIGINATOR     = 

OBJECT_NAME    = STARLINK-36427
OBJECT_ID      = 2026-002AE
CENTER_NAME    = EARTH
REF_FRAME      = TEME
TIME_SYSTEM    = UTC
MEAN_ELEMENT_THEORY = SGP/SGP4

EPOCH          = 2026-01-09T22:00:01.999584
MEAN_MOTION    = 16.06210396
ECCENTRICITY   = .00020433
INCLINATION    = 42.9992
RA_OF_ASC_NODE = 307.4771
ARG_OF_PERICENTER = 258.8833
MEAN_ANOMALY   = 86.8537

EPHEMERIS_TYPE = 0
CLASSIFICATION_TYPE = U
NORAD_CAT_ID   = 67333
ELEMENT_SET_NO = 999
REV_AT_EPOCH   = 202
BSTAR          = -.89281392E-3
MEAN_MOTION_DOT = -.693014E-2
MEAN_MOTION_DDOT = .1808722E-3

